FENGYUN 1C DEB          
1 39544U 99025EWM 17345.52525873 -.00000018  00000-0  16490-4 0  9991
2 39544  98.9256 258.4806 0054600 242.4169 117.1445 14.02163496158599
